     2.10           NAVIGATION DATA                         RINEX VERSION / TYPE
GR30 V4.31          General Command of M2020 02 01 23:59    PGM / RUN BY / DATE 
   8.3819D-09 -7.4506D-09 -5.9605D-08  5.9605D-08           ION ALPHA           
   8.8064D+04 -3.2768D+04 -1.9661D+05  1.9661D+05           ION BETA            
    0.000000000000D+00 1.776356839400D-15   221184     2091 DELTA-UTC: A0,A1,T,W
    18                                                      LEAP SECONDS        
                                                            END OF HEADER       
22 20 02 02 06 00  0.0-7.836879231036D-04-9.094947017729D-13 0.000000000000D+00
    6.000000000000D+00-1.128125000000D+01 5.349508542789D-09-2.225687664894D+00
   -5.289912223816D-07 7.050051819533D-03 6.204470992088D-06 5.153581224442D+03
    2.160000000000D+04 9.313225746155D-09-2.441334280172D-01 1.303851604462D-07
    9.299361432073D-01 2.401562500000D+02-1.231577362221D+00-8.373205920493D-09
    1.257195224370D-10 1.000000000000D+00 2.091000000000D+03 0.000000000000D+00
    2.000000000000D+00 0.000000000000D+00-1.816079020500D-08 6.000000000000D+00
    1.440000000000D+04 0.000000000000D+00
31 20 02 02 06 00  0.0-2.050958573818D-05-2.501110429876D-12 0.000000000000D+00
    5.400000000000D+01 5.634375000000D+01 4.409826544119D-09 1.708568708402D+00
    3.138557076454D-06 9.650321910158D-03 9.633600711823D-06 5.153779115677D+03
    2.160000000000D+04-5.587935447693D-08 1.959231236359D+00 8.381903171539D-08
    9.580008104534D-01 1.928750000000D+02 1.137308575753D-01-7.990689987169D-09
   -9.786121916973D-11 1.000000000000D+00 2.091000000000D+03 0.000000000000D+00
    2.000000000000D+00 0.000000000000D+00-1.350417733192D-08 5.400000000000D+01
    1.440000000000D+04 0.000000000000D+00
 1 20 02 02 06 00  0.0-2.817893400788D-04-1.216449163621D-11 0.000000000000D+00
    6.000000000000D+00-2.143750000000D+01 4.080884270924D-09 2.823387598752D+00
   -1.175329089165D-06 9.342067758553D-03 8.292496204376D-06 5.153638360977D+03
    2.160000000000D+04-2.793967723846D-08-1.203107811915D+00-1.490116119385D-07
    9.785992836396D-01 2.288750000000D+02 7.555280343410D-01-7.679605600684D-09
    1.917937032633D-10 1.000000000000D+00 2.091000000000D+03 0.000000000000D+00
    2.000000000000D+00 0.000000000000D+00 5.587935447693D-09 6.000000000000D+00
    1.440000000000D+04 0.000000000000D+00
 3 20 02 02 06 00  0.0-8.524581789970D-05-8.412825991400D-12 0.000000000000D+00
    1.600000000000D+01-1.978125000000D+01 4.613406452611D-09 1.687217876928D+00
   -1.080334186554D-06 2.615450881422D-03 6.562098860741D-06 5.153621534348D+03
    2.160000000000D+04-9.685754776001D-08-1.619289246468D-01 6.519258022308D-08
    9.651195292852D-01 2.542187500000D+02 7.426083069710D-01-8.118909613745D-09
    7.893185925733D-11 1.000000000000D+00 2.091000000000D+03 0.000000000000D+00
    2.000000000000D+00 0.000000000000D+00 1.862645149231D-09 1.600000000000D+01
    1.440000000000D+04 0.000000000000D+00
23 20 02 02 06 00  0.0-1.391158439219D-04 2.501110429876D-12 0.000000000000D+00
    4.900000000000D+01-2.621875000000D+01 4.856988027333D-09-2.756284254508D+00
   -1.516193151474D-06 1.339944219217D-02 8.570030331612D-06 5.153675088882D+03
    2.160000000000D+04 8.381903171539D-08 8.616133104528D-01-1.452863216400D-07
    9.433819125119D-01 2.025312500000D+02-2.202513197778D+00-7.963188841636D-09
   -1.289339420448D-10 1.000000000000D+00 2.091000000000D+03 0.000000000000D+00
    2.000000000000D+00 0.000000000000D+00-2.002343535423D-08 4.900000000000D+01
    1.620000000000D+04 0.000000000000D+00
 4 20 02 02 06 00  0.0-4.300102591515D-05-5.456968210638D-12 0.000000000000D+00
    1.760000000000D+02-2.009375000000D+01 4.511259340631D-09-2.170408104404D+00
   -1.119449734688D-06 5.108193727210D-04 8.827075362206D-06 5.153722263336D+03
    2.160000000000D+04-8.754432201385D-08 9.161257532749D-01 2.980232238770D-08
    9.598404299380D-01 2.094062500000D+02-2.748061247576D+00-7.933544749698D-09
   -1.917937032633D-10 1.000000000000D+00 2.091000000000D+03 0.000000000000D+00
    2.800000000000D+00 0.000000000000D+00-4.190951585770D-09 4.320000000000D+02
    1.689000000000D+04 0.000000000000D+00
 4 20 02 02 06 59 44.0-4.302198067307D-05-5.456968210638D-12 0.000000000000D+00
    1.770000000000D+02-2.018750000000D+01 4.514473760239D-09-1.647869879069D+00
   -1.121312379837D-06 5.108687328175D-04 8.767470717430D-06 5.153722061157D+03
    2.518400000000D+04-6.705522537231D-08 9.160976491556D-01-8.381903171539D-08
    9.598396019264D-01 2.103125000000D+02-2.747857707395D+00-7.938544957976D-09
   -2.635824078367D-10 1.000000000000D+00 2.091000000000D+03 0.000000000000D+00
    2.000000000000D+00 0.000000000000D+00-4.190951585770D-09 4.330000000000D+02
    1.800000000000D+04 0.000000000000D+00
 9 20 02 02 05 59 44.0-1.462940126657D-04-8.640199666843D-12 0.000000000000D+00
    1.600000000000D+01-1.859375000000D+01 4.743769025592D-09-8.659944180178D-01
   -1.028180122375D-06 1.775642042048D-03 8.756294846535D-06 5.153796417236D+03
    2.158400000000D+04-3.539025783539D-08 8.691146043061D-01 4.097819328308D-08
    9.525593871791D-01 2.066562500000D+02 1.768026014752D+00-8.117480982809D-09
   -1.753644474903D-10 1.000000000000D+00 2.091000000000D+03 0.000000000000D+00
    2.000000000000D+00 0.000000000000D+00 1.396983861923D-09 1.600000000000D+01
    1.812000000000D+04 0.000000000000D+00
 4 20 02 02 08 00  0.0-4.304153844714D-05-5.456968210638D-12 0.000000000000D+00
    1.780000000000D+02-2.034375000000D+01 4.543403536708D-09-1.120406614210D+00
   -1.154839992523D-06 5.108668701723D-04 8.786097168922D-06 5.153722110748D+03
    2.880000000000D+04 3.166496753693D-08 9.160691661406D-01-7.078051567078D-08
    9.598384491470D-01 2.101562500000D+02-2.747911784161D+00-7.979618097409D-09
   -3.157274370293D-10 1.000000000000D+00 2.091000000000D+03 0.000000000000D+00
    2.000000000000D+00 0.000000000000D+00-4.190951585770D-09 4.340000000000D+02
    2.160000000000D+04 0.000000000000D+00
23 20 02 02 08 00  0.0-1.390972174704D-04 2.501110429876D-12 0.000000000000D+00
    7.500000000000D+01-2.037500000000D+01 4.910918845196D-09-1.706194983378D+00
   -1.136213541031D-06 1.340043859091D-02 7.951632142067D-06 5.153672079086D+03
    2.880000000000D+04 2.644956111908D-07 8.615562990723D-01-1.229345798492D-07
    9.433807553437D-01 2.124375000000D+02-2.202419196514D+00-8.031048811133D-09
   -2.050085394286D-10 1.000000000000D+00 2.091000000000D+03 0.000000000000D+00
    2.000000000000D+00 0.000000000000D+00-2.002343535423D-08 7.500000000000D+01
    2.160000000000D+04 0.000000000000D+00
 3 20 02 02 08 00  0.0-8.530635386705D-05-8.412825991400D-12 0.000000000000D+00
    3.800000000000D+01-1.575000000000D+01 4.618406660890D-09 2.737841121935D+00
   -8.884817361832D-07 2.616190700792D-03 6.902962923050D-06 5.153619081497D+03
    2.880000000000D+04-6.146728992462D-08-1.619871590268D-01-4.097819328308D-08
    9.651206615837D-01 2.458750000000D+02 7.421994169791D-01-8.024977129652D-09
    1.114332130692D-10 1.000000000000D+00 2.091000000000D+03 0.000000000000D+00
    2.000000000000D+00 0.000000000000D+00 1.862645149231D-09 3.800000000000D+01
    2.160000000000D+04 0.000000000000D+00
 9 20 02 02 08 00  0.0-1.463559456170D-04-8.640199666843D-12 0.000000000000D+00
    1.700000000000D+01-2.271875000000D+01 4.755198073087D-09 1.861851831088D-01
   -1.255422830582D-06 1.774793723598D-03 8.413568139076D-06 5.153794603348D+03
    2.880000000000D+04-5.960464477539D-08 8.690565381617D-01-6.891787052155D-08
    9.525578584297D-01 2.124687500000D+02 1.768288010213D+00-8.108909197188D-09
   -2.660825119761D-10 1.000000000000D+00 2.091000000000D+03 0.000000000000D+00
    2.000000000000D+00 0.000000000000D+00 1.396983861923D-09 1.700000000000D+01
    2.160000000000D+04 0.000000000000D+00
22 20 02 02 08 00  0.0-7.836944423616D-04-9.094947017729D-13 0.000000000000D+00
    7.000000000000D+00-1.284375000000D+01 5.500943422088D-09-1.175614763817D+00
   -6.500631570816D-07 7.050349493511D-03 6.798654794693D-06 5.153578874588D+03
    2.880000000000D+04-1.844018697739D-07-2.441949598145D-01-3.166496753693D-08
    9.299360963939D-01 2.313437500000D+02-1.231405232354D+00-8.625002123101D-09
    1.735786588193D-10 1.000000000000D+00 2.091000000000D+03 0.000000000000D+00
    2.000000000000D+00 0.000000000000D+00-1.816079020500D-08 7.000000000000D+00
    2.163000000000D+04 0.000000000000D+00
 7 20 02 02 08 00  0.0-2.054562792182D-04-8.412825991400D-12 0.000000000000D+00
    2.100000000000D+01 4.728125000000D+01 4.501973239542D-09-3.136026518012D+00
    2.350658178329D-06 1.329477224499D-02 9.125098586082D-06 5.153699363708D+03
    2.880000000000D+04-5.587935447693D-09 1.944080994868D+00-1.527369022369D-07
    9.535260600392D-01 1.989375000000D+02-2.418531272827D+00-7.795681864298D-09
    1.178620522847D-11 1.000000000000D+00 2.091000000000D+03 0.000000000000D+00
    2.000000000000D+00 0.000000000000D+00-1.117587089539D-08 2.100000000000D+01
    2.346000000000D+04 0.000000000000D+00
 6 20 02 02 08 00  0.0-1.981360837817D-04-9.777068044059D-12 0.000000000000D+00
    5.700000000000D+01-2.281250000000D+01 4.182674225170D-09-2.135767017669D+00
   -1.084059476852D-06 1.860712422058D-03 7.972121238708D-06 5.153746770859D+03
    2.880000000000D+04-2.235174179077D-08-1.211423147997D+00 1.117587089539D-08
    9.781884113937D-01 2.362187500000D+02-1.151212999134D+00-7.845683947085D-09
    2.132231673151D-10 1.000000000000D+00 2.091000000000D+03 0.000000000000D+00
    2.000000000000D+00 0.000000000000D+00 4.656612873077D-09 5.700000000000D+01
    2.481000000000D+04 0.000000000000D+00
